STARLINK-1278
1 25408C 20019BA  21325.12696056  .00001442  00000-0  96591-4 0  3259
2 25408  53.0540  12.6627 0001468  60.6030  79.5508 15.06400624    11
